TRANSPORTER-10 OBJECT AD
1 59125U 24043AD  26068.86032889  .00011954  00000+0  36311-3 0  9997
2 59125  97.5470 207.3753 0008984 221.4908 138.5653 15.34189901112026
STARLINK-32641          
1 62236U 24231U   26068.66115715  .00015730  00000+0  54213-3 0  9998
2 62236  53.1583 207.0009 0000969  84.5160 275.5952 15.30198416 71935
